ELYSIUM STAR 2 & LFF    
1 43760U 18099C   24164.76194960  .00034270  00000+0  13397-2 0  9996
2 43760  97.5161 232.3373 0005115 272.8648  87.2005 15.25767501302560
